ONEWEB-0216             
1 48801U 21045AL  23232.16898075  .00000350  00000+0  89555-3 0  9991
2 48801  87.8978 104.7276 0001450  88.5605 271.5691 13.15551357109736
ONEWEB-0239             
1 48802U 21045AM  23233.08589774  .00004405  00000+0  11661-1 0  9993
2 48802  87.8978 104.4963 0002548  98.5623 261.5796 13.15553988109914
ONEWEB-0249             
1 48967U 21060A   23232.08939597  .00001391  00000+0  36049-2 0  9992
2 48967  87.9072  74.2013 0002079  87.7356 272.4013 13.16588938105096
ONEWEB-0250             
1 48968U 21060B   23232.47360953  .00000019  00000+0  16490-4 0  9996
2 48968  87.8973  74.1314 0002033  94.2853 265.8510 13.16593081105121
ONEWEB-0252             
1 48970U 21060D   23232.50104418 -.00000017  00000+0 -77456-4 0  9994
2 48970  87.8984  74.1314 0001571  90.3788 269.7523 13.16593305105199
ONEWEB-0253             
1 48971U 21060E   23232.11049675 -.00001146  00000+0 -30326-2 0  9992
2 48971  87.8996  74.2857 0001597 102.5155 257.6155 13.16598869105061
ONEWEB-0254             
1 48972U 21060F   23232.49893619 -.00000022  00000+0 -90795-4 0  9999
2 48972  87.8983  74.1212 0001894  96.7176 263.4170 13.16593774105117
ONEWEB-0255             
1 48973U 21060G   23232.08094464  .00000142  00000+0  33790-3 0  9998
2 48973  87.8969  74.2431 0001791  87.0299 273.1037 13.16595218105149
